[{"OBJECT_NAME":"STARLINK-35452","OBJECT_ID":"2025-236U","EPOCH":"2026-03-09T08:51:25.444800","MEAN_MOTION":15.30188556,"ECCENTRICITY":0.00013357,"INCLINATION":53.159,"RA_OF_ASC_NODE":105.4911,"ARG_OF_PERICENTER":87.3218,"MEAN_ANOMALY":272.7936,"EPHEMERIS_TYPE":0,"CLASSIFICATION_TYPE":"U","NORAD_CAT_ID":66104,"ELEMENT_SET_NO":999,"REV_AT_EPOCH":2289,"BSTAR":0.00034143843,"MEAN_MOTION_DOT":9.763e-5,"MEAN_MOTION_DDOT":0},{"OBJECT_NAME":"FENGYUN 1C DEB","OBJECT_ID":"1999-025AQG","EPOCH":"2026-03-09T10:43:06.043872","MEAN_MOTION":15.25746961,"ECCENTRICITY":0.00178142,"INCLINATION":98.9311,"RA_OF_ASC_NODE":250.2123,"ARG_OF_PERICENTER":328.3876,"MEAN_ANOMALY":31.6286,"EPHEMERIS_TYPE":0,"CLASSIFICATION_TYPE":"U","NORAD_CAT_ID":30674,"ELEMENT_SET_NO":999,"REV_AT_EPOCH":98658,"BSTAR":0.015201752,"MEAN_MOTION_DOT":0.00411052,"MEAN_MOTION_DDOT":0}]
